{"type": "FeatureCollection", "features": [{"type": "Feature", "geometry": {"type": "Polygon", "coordinates": [[[68.0, 48.0], [67.90369453344394, 49.960342806591214], [67.61570560806462, 51.90180644032257], [67.13880671464418, 53.80569354508925], [66.47759065022574, 55.6536686473018], [65.6384252869671, 57.42793473651995], [64.62939224605091, 59.11140466039204], [63.46020906725474, 60.68786568327291], [62.14213562373095, 62.14213562373095], [60.68786568327291, 63.46020906725474], [59.11140466039205, 64.62939224605091], [57.42793473651996, 65.6384252869671], [55.6536686473018, 66.47759065022574], [53.80569354508925, 67.13880671464418], [51.90180644032257, 67.61570560806462], [49.960342806591214, 67.90369453344394], [48.0, 68.0], [46.039657193408786, 67.90369453344394], [44.09819355967743, 67.61570560806462], [42.19430645491076, 67.13880671464418], [40.34633135269821, 66.47759065022574], [38.57206526348004, 65.6384252869671], [36.88859533960796, 64.62939224605091], [35.3121343167271, 63.46020906725474], [33.85786437626905, 62.14213562373095], [32.53979093274526, 60.68786568327291], [31.370607753949095, 59.11140466039204], [30.3615747130329, 57.42793473651996], [29.522409349774264, 55.6536686473018], [28.861193285355824, 53.80569354508925], [28.38429439193539, 51.901806440322574], [28.096305466556064, 49.960342806591214], [28.0, 48.0], [28.09630546655606, 46.039657193408786], [28.38429439193539, 44.09819355967743], [28.86119328535582, 42.19430645491076], [29.522409349774264, 40.34633135269821], [30.361574713032898, 38.57206526348005], [31.37060775394909, 36.88859533960796], [32.53979093274526, 35.3121343167271], [33.85786437626905, 33.85786437626905], [35.31213431672708, 32.53979093274526], [36.88859533960796, 31.370607753949095], [38.57206526348004, 30.3615747130329], [40.34633135269819, 29.52240934977427], [42.19430645491075, 28.861193285355824], [44.098193559677426, 28.384294391935395], [46.03965719340879, 28.09630546655606], [47.99999999999999, 28.0], [49.9603428065912, 28.09630546655606], [51.90180644032257, 28.38429439193539], [53.80569354508924, 28.86119328535582], [55.6536686473018, 29.522409349774268], [57.42793473651995, 30.361574713032898], [59.11140466039204, 31.37060775394909], [60.68786568327291, 32.53979093274526], [62.14213562373095, 33.85786437626905], [63.46020906725474, 35.31213431672708], [64.62939224605091, 36.88859533960796], [65.63842528696709, 38.57206526348004], [66.47759065022572, 40.34633135269819], [67.13880671464418, 42.19430645491075], [67.6157056080646, 44.098193559677426], [67.90369453344394, 46.03965719340879], [68.0, 48.0]]]}, "properties": {"objectType": "detection", "name": "colour_circle", "expected": {}}}, {"type": "Feature", "geometry": {"type": "Polygon", "coordinates": [[[5, 5], [35, 5], [35, 35], [5, 35], [5, 5]]]}, "properties": {"objectType": "detection", "name": "colour_square", "expected": {}}}]}