{"type": "FeatureCollection", "features": [{"type": "Feature", "geometry": {"type": "Polygon", "coordinates": [[[63.0, 48.0], [62.927770900082955, 49.47025710494341], [62.711779206048455, 50.92635483024193], [62.35410503598313, 52.35427015881694], [61.8581929876693, 53.74025148547635], [61.22881896522533, 55.070951052389965], [60.47204418453818, 56.333553495294034], [59.59515680044105, 57.51589926245468], [58.60660171779821, 58.60660171779821], [57.51589926245468, 59.59515680044105], [56.333553495294034, 60.47204418453818], [55.070951052389965, 61.22881896522532], [53.74025148547635, 61.8581929876693], [52.35427015881694, 62.35410503598313], [50.92635483024193, 62.711779206048455], [49.470257104943414, 62.927770900082955], [48.0, 63.0], [46.52974289505659, 62.927770900082955], [45.07364516975808, 62.711779206048455], [43.64572984118307, 62.35410503598313], [42.25974851452365, 61.8581929876693], [40.929048947610035, 61.22881896522533], [39.66644650470597, 60.472044184538184], [38.48410073754532, 59.59515680044106], [37.39339828220179, 58.60660171779821], [36.40484319955895, 57.51589926245468], [35.52795581546182, 56.333553495294034], [34.77118103477468, 55.070951052389965], [34.1418070123307, 53.74025148547635], [33.64589496401687, 52.35427015881694], [33.288220793951545, 50.92635483024193], [33.072229099917045, 49.470257104943414], [33.0, 48.0], [33.072229099917045, 46.52974289505659], [33.288220793951545, 45.07364516975807], [33.64589496401687, 43.64572984118307], [34.141807012330695, 42.25974851452366], [34.77118103477467, 40.929048947610035], [35.527955815461816, 39.66644650470597], [36.40484319955894, 38.48410073754532], [37.39339828220179, 37.39339828220179], [38.48410073754531, 36.404843199558954], [39.666446504705966, 35.52795581546182], [40.929048947610035, 34.77118103477468], [42.25974851452364, 34.1418070123307], [43.64572984118306, 33.64589496401687], [45.07364516975807, 33.288220793951545], [46.52974289505659, 33.072229099917045], [48.0, 33.0], [49.4702571049434, 33.072229099917045], [50.92635483024193, 33.288220793951545], [52.35427015881693, 33.64589496401687], [53.74025148547635, 34.1418070123307], [55.070951052389965, 34.77118103477467], [56.33355349529403, 35.527955815461816], [57.51589926245468, 36.40484319955895], [58.60660171779821, 37.39339828220179], [59.595156800441046, 38.48410073754531], [60.47204418453818, 39.666446504705966], [61.22881896522532, 40.92904894761003], [61.8581929876693, 42.25974851452364], [62.35410503598313, 43.64572984118306], [62.711779206048455, 45.073645169758066], [62.927770900082955, 46.52974289505659], [63.0, 48.0]]]}, "properties": {"objectType": "detection", "name": "noise_circle", "expected": {}}}, {"type": "Feature", "geometry": {"type": "Polygon", "coordinates": [[[5, 5], [45, 5], [45, 6], [5, 6], [5, 5]]]}, "properties": {"objectType": "detection", "name": "noise_bar_1x40", "expected": {}}}, {"type": "Feature", "geometry": {"type": "Polygon", "coordinates": [[[5, 10], [45, 10], [45, 12], [5, 12], [5, 10]]]}, "properties": {"objectType": "detection", "name": "noise_bar_2x40", "expected": {}}}, {"type": "Feature", "geometry": {"type": "Polygon", "coordinates": [[[5, 20], [45, 60], [43, 62], [3, 22], [5, 20]]]}, "properties": {"objectType": "detection", "name": "noise_diagonal", "expected": {}}}, {"type": "Feature", "geometry": {"type": "Polygon", "coordinates": [[[90.0, 25.0], [77.20775094321935, 28.471069912940465], [82.46979603717467, 40.6366296493606], [71.78016747165051, 32.79942329745459], [65.54958132087371, 44.498558243636474], [65.01208158513013, 31.25465185974424], [51.98062264195162, 33.67767478235116], [62.0, 25.0], [51.98062264195161, 16.32232521764884], [65.01208158513013, 18.745348140255764], [65.54958132087371, 5.501441756363526], [71.7801674716505, 17.20057670254541], [82.46979603717466, 9.363370350639402], [77.20775094321935, 21.52893008705954], [90.0, 25.0]]]}, "properties": {"objectType": "detection", "name": "noise_star", "expected": {}}}, {"type": "Feature", "geometry": {"type": "Polygon", "coordinates": [[[50, 55], [80, 55], [80, 85], [50, 85], [50, 55]], [[60, 65], [70, 65], [70, 75], [60, 75], [60, 65]]]}, "properties": {"objectType": "detection", "name": "noise_ring", "expected": {}}}, {"type": "Feature", "geometry": {"type": "Polygon", "coordinates": [[[10.3, 70.6], [30.7, 70.6], [30.7, 85.8], [10.3, 85.8], [10.3, 70.6]]]}, "properties": {"objectType": "detection", "name": "noise_subpixel_square", "expected": {}}}]}